start=new Date('2023-02-15T00:00:00.000Z').valueOf();
sats=[{"TLE_LINE2":"2 48363  53.0536 340.6722 0001277 101.1554 258.9579 15.06390672 99008","REV_AT_EPOCH":"9900","SEMIMAJOR_AXIS":"6925.377","APOAPSIS":"548.127","MEAN_ANOMALY":"258.9579","OBJECT_ID":"2021-038L","MEAN_MOTION_DOT":"0.00000629","NORAD_CAT_ID":"48363","EPOCH":"2023-02-14T13:00:53.545824","SITE":"AFETR","RA_OF_ASC_NODE":"340.6722","MEAN_MOTION":"15.06390672","RCS_SIZE":"LARGE","GP_ID":"225402136","LAUNCH_DATE":"2021-05-04","ECCENTRICITY":"0.00012770","ELEMENT_SET_NO":"999","ARG_OF_PERICENTER":"101.1554","BSTAR":"0.00006114800000","FILE":"3791673","TLE_LINE1":"1 48363U 21038L   23045.54228641  .00000629  00000-0  61148-4 0  9995","CLASSIFICATION_TYPE":"U","OBJECT_NAME":"STARLINK-2626","CENTER_NAME":"EARTH","REF_FRAME":"TEME","MEAN_ELEMENT_THEORY":"SGP4","DECAY_DATE":null,"MEAN_MOTION_DDOT":"0.0000000000000","OBJECT_TYPE":"PAYLOAD","PERIOD":"95.593","TIME_SYSTEM":"UTC","COUNTRY_CODE":"US","PERIAPSIS":"546.358","EPHEMERIS_TYPE":"0","INCLINATION":"53.0536"},{"BSTAR":"0.00057751000000","FILE":"3791349","ECCENTRICITY":"0.00012180","ARG_OF_PERICENTER":"102.6519","ELEMENT_SET_NO":"999","GP_ID":"225391893","RCS_SIZE":"LARGE","MEAN_MOTION":"15.06413525","LAUNCH_DATE":"2021-05-04","SITE":"AFETR","RA_OF_ASC_NODE":"342.2953","NORAD_CAT_ID":"48364","EPOCH":"2023-02-14T05:24:28.067904","OBJECT_ID":"2021-038M","MEAN_MOTION_DOT":"0.00008334","SEMIMAJOR_AXIS":"6925.307","MEAN_ANOMALY":"257.4606","APOAPSIS":"548.016","REV_AT_EPOCH":"9836","TLE_LINE2":"2 48364  53.0542 342.2953 0001218 102.6519 257.4606 15.06413525 98368","INCLINATION":"53.0542","EPHEMERIS_TYPE":"0","TIME_SYSTEM":"UTC","PERIAPSIS":"546.329","COUNTRY_CODE":"US","MEAN_MOTION_DDOT":"0.0000000000000","OBJECT_TYPE":"PAYLOAD","PERIOD":"95.591","MEAN_ELEMENT_THEORY":"SGP4","DECAY_DATE":null,"REF_FRAME":"TEME","OBJECT_NAME":"STARLINK-2611","CENTER_NAME":"EARTH","CLASSIFICATION_TYPE":"U","TLE_LINE1":"1 48364U 21038M   23045.22532486  .00008334  00000-0  57751-3 0  9991"},{"EPOCH":"2023-02-14T18:45:54.544320","NORAD_CAT_ID":"48365","MEAN_MOTION_DOT":"0.00000184","OBJECT_ID":"2021-038N","APOAPSIS":"548.230","MEAN_ANOMALY":"263.2990","SEMIMAJOR_AXIS":"6925.375","TLE_LINE2":"2 48365  53.0543 339.5843 0001430  96.8162 263.2990 15.06391440 98453","REV_AT_EPOCH":"9845","FILE":"3792084","BSTAR":"0.00003128600000","ELEMENT_SET_NO":"999","ARG_OF_PERICENTER":"96.8162","ECCENTRICITY":"0.00014300","LAUNCH_DATE":"2021-05-04","MEAN_MOTION":"15.06391440","RCS_SIZE":"LARGE","GP_ID":"225431760","RA_OF_ASC_NODE":"339.5843","SITE":"AFETR","PERIOD":"95.593","OBJECT_TYPE":"PAYLOAD","MEAN_MOTION_DDOT":"0.0000000000000","DECAY_DATE":null,"MEAN_ELEMENT_THEORY":"SGP4","OBJECT_NAME":"STARLINK-2608","REF_FRAME":"TEME","CENTER_NAME":"EARTH","TLE_LINE1":"1 48365U 21038N   23045.78188130  .00000184  00000-0  31286-4 0  9997","CLASSIFICATION_TYPE":"U","INCLINATION":"53.0543","EPHEMERIS_TYPE":"0","COUNTRY_CODE":"US","PERIAPSIS":"546.249","TIME_SYSTEM":"UTC"},{"FILE":"3791673","BSTAR":"0.00029850000000","ARG_OF_PERICENTER":"87.9585","ELEMENT_SET_NO":"999","ECCENTRICITY":"0.00016500","LAUNCH_DATE":"2021-05-04","GP_ID":"225402140","RCS_SIZE":"LARGE","MEAN_MOTION":"15.06396028","RA_OF_ASC_NODE":"335.8395","SITE":"AFETR","EPOCH":"2023-02-14T12:05:50.167968","NORAD_CAT_ID":"48366","MEAN_MOTION_DOT":"0.00004167","OBJECT_ID":"2021-038P","MEAN_ANOMALY":"272.1593","APOAPSIS":"548.368","SEMIMAJOR_AXIS":"6925.361","TLE_LINE2":"2 48366  53.0541 335.8395 0001650  87.9585 272.1593 15.06396028 99060","REV_AT_EPOCH":"9906","INCLINATION":"53.0541","EPHEMERIS_TYPE":"0","PERIAPSIS":"546.083","COUNTRY_CODE":"US","TIME_SYSTEM":"UTC","PERIOD":"95.592","MEAN_MOTION_DDOT":"0.0000000000000","OBJECT_TYPE":"PAYLOAD","DECAY_DATE":null,"MEAN_ELEMENT_THEORY":"SGP4","CENTER_NAME":"EARTH","OBJECT_NAME":"STARLINK-2631","REF_FRAME":"TEME","CLASSIFICATION_TYPE":"U","TLE_LINE1":"1 48366U 21038P   23045.50405287  .00004167  00000-0  29850-3 0  9991"},{"PERIOD":"95.592","OBJECT_TYPE":"PAYLOAD","MEAN_MOTION_DDOT":"0.0000000000000","DECAY_DATE":null,"MEAN_ELEMENT_THEORY":"SGP4","OBJECT_NAME":"STARLINK-2643","REF_FRAME":"TEME","CENTER_NAME":"EARTH","TLE_LINE1":"1 48367U 21038Q   23045.76575427  .00002507  00000-0  18716-3 0  9999","CLASSIFICATION_TYPE":"U","INCLINATION":"53.0536","EPHEMERIS_TYPE":"0","COUNTRY_CODE":"US","PERIAPSIS":"545.982","TIME_SYSTEM":"UTC","EPOCH":"2023-02-14T18:22:41.168928","NORAD_CAT_ID":"48367","MEAN_MOTION_DOT":"0.00002507","OBJECT_ID":"2021-038Q","APOAPSIS":"548.467","MEAN_ANOMALY":"268.2780","SEMIMAJOR_AXIS":"6925.359","TLE_LINE2":"2 48367  53.0536 334.6675 0001794  91.8415 268.2780 15.06396530 98519","REV_AT_EPOCH":"9851","FILE":"3792084","BSTAR":"0.00018716000000","ELEMENT_SET_NO":"999","ARG_OF_PERICENTER":"91.8415","ECCENTRICITY":"0.00017940","LAUNCH_DATE":"2021-05-04","MEAN_MOTION":"15.06396530","GP_ID":"225432253","RCS_SIZE":"LARGE","RA_OF_ASC_NODE":"334.6675","SITE":"AFETR"},{"REV_AT_EPOCH":"9852","TLE_LINE2":"2 48368  53.0539 334.7489 0001137 118.6800 241.4303 15.06392546 98522","APOAPSIS":"548.024","MEAN_ANOMALY":"241.4303","SEMIMAJOR_AXIS":"6925.371","OBJECT_ID":"2021-038R","MEAN_MOTION_DOT":"0.00002303","EPOCH":"2023-02-14T19:26:26.098656","NORAD_CAT_ID":"48368","SITE":"AFETR","RA_OF_ASC_NODE":"334.7489","LAUNCH_DATE":"2021-05-04","MEAN_MOTION":"15.06392546","GP_ID":"225431011","RCS_SIZE":"LARGE","ELEMENT_SET_NO":"999","ARG_OF_PERICENTER":"118.6800","ECCENTRICITY":"0.00011370","FILE":"3792084","BSTAR":"0.00017346000000","TLE_LINE1":"1 48368U 21038R   23045.81002429  .00002303  00000-0  17346-3 0  9995","CLASSIFICATION_TYPE":"U","OBJECT_NAME":"STARLINK-2623","CENTER_NAME":"EARTH","REF_FRAME":"TEME","DECAY_DATE":null,"MEAN_ELEMENT_THEORY":"SGP4","PERIOD":"95.593","MEAN_MOTION_DDOT":"0.0000000000000","OBJECT_TYPE":"PAYLOAD","COUNTRY_CODE":"US","PERIAPSIS":"546.449","TIME_SYSTEM":"UTC","EPHEMERIS_TYPE":"0","INCLINATION":"53.0539"},{"PERIAPSIS":"545.612","COUNTRY_CODE":"US","TIME_SYSTEM":"UTC","INCLINATION":"53.0547","EPHEMERIS_TYPE":"0","REF_FRAME":"TEME","OBJECT_NAME":"STARLINK-2641","CENTER_NAME":"EARTH","CLASSIFICATION_TYPE":"U","TLE_LINE1":"1 48369U 21038S   23045.49668417  .00010842  00000-0  74566-3 0  9999","PERIOD":"95.592","OBJECT_TYPE":"PAYLOAD","MEAN_MOTION_DDOT":"0.0000000000000","DECAY_DATE":null,"MEAN_ELEMENT_THEORY":"SGP4","LAUNCH_DATE":"2021-05-04","RCS_SIZE":"LARGE","GP_ID":"225391149","MEAN_MOTION":"15.06399192","RA_OF_ASC_NODE":"335.8742","SITE":"AFETR","FILE":"3791349","BSTAR":"0.00074566000000","ARG_OF_PERICENTER":"82.0297","ELEMENT_SET_NO":"999","ECCENTRICITY":"0.00023160","MEAN_ANOMALY":"278.0954","APOAPSIS":"548.820","SEMIMAJOR_AXIS":"6925.351","TLE_LINE2":"2 48369  53.0547 335.8742 0002316  82.0297 278.0954 15.06399192 98476","REV_AT_EPOCH":"9847","EPOCH":"2023-02-14T11:55:13.512288","NORAD_CAT_ID":"48369","OBJECT_ID":"2021-038S","MEAN_MOTION_DOT":"0.00010842"},{"COUNTRY_CODE":"US","PERIAPSIS":"545.933","TIME_SYSTEM":"UTC","EPHEMERIS_TYPE":"0","INCLINATION":"53.0561","TLE_LINE1":"1 48370U 21038T   23045.49299394  .00005950  00000-0  41796-3 0  9998","CLASSIFICATION_TYPE":"U","OBJECT_NAME":"STARLINK-2621","CENTER_NAME":"EARTH","REF_FRAME":"TEME","DECAY_DATE":null,"MEAN_ELEMENT_THEORY":"SGP4","PERIOD":"95.592","MEAN_MOTION_DDOT":"0.0000000000000","OBJECT_TYPE":"PAYLOAD","RA_OF_ASC_NODE":"335.8899","SITE":"AFETR","LAUNCH_DATE":"2021-05-04","MEAN_MOTION":"15.06403927","GP_ID":"225402459","RCS_SIZE":"LARGE","ELEMENT_SET_NO":"999","ARG_OF_PERICENTER":"89.0394","ECCENTRICITY":"0.00018310","FILE":"3791709","BSTAR":"0.00041796000000","TLE_LINE2":"2 48370  53.0561 335.8899 0001831  89.0394 271.0805 15.06403927 99069","REV_AT_EPOCH":"9906","APOAPSIS":"548.470","MEAN_ANOMALY":"271.0805","SEMIMAJOR_AXIS":"6925.337","OBJECT_ID":"2021-038T","MEAN_MOTION_DOT":"0.00005950","EPOCH":"2023-02-14T11:49:54.676416","NORAD_CAT_ID":"48370"},{"TLE_LINE2":"2 48371  53.0548 337.0955 0001669  83.4715 276.6464 15.06428099 99021","REV_AT_EPOCH":"9902","MEAN_ANOMALY":"276.6464","APOAPSIS":"548.283","SEMIMAJOR_AXIS":"6925.262","MEAN_MOTION_DOT":"0.00019148","OBJECT_ID":"2021-038U","NORAD_CAT_ID":"48371","EPOCH":"2023-02-14T05:22:26.411520","SITE":"AFETR","RA_OF_ASC_NODE":"337.0955","LAUNCH_DATE":"2021-05-04","RCS_SIZE":"LARGE","GP_ID":"225402458","MEAN_MOTION":"15.06428099","ARG_OF_PERICENTER":"83.4715","ELEMENT_SET_NO":"999","ECCENTRICITY":"0.00016690","FILE":"3791709","BSTAR":"0.00129990000000","CLASSIFICATION_TYPE":"U","TLE_LINE1":"1 48371U 21038U   23045.22391680  .00019148  00000-0  12999-2 0  9997","REF_FRAME":"TEME","OBJECT_NAME":"STARLINK-2589","CENTER_NAME":"EARTH","DECAY_DATE":null,"MEAN_ELEMENT_THEORY":"SGP4","PERIOD":"95.590","OBJECT_TYPE":"PAYLOAD","MEAN_MOTION_DDOT":"0.0000000000000","PERIAPSIS":"545.972","COUNTRY_CODE":"US","TIME_SYSTEM":"UTC","EPHEMERIS_TYPE":"0","INCLINATION":"53.0548"},{"RCS_SIZE":"LARGE","GP_ID":"225391894","MEAN_MOTION":"15.06438201","LAUNCH_DATE":"2021-05-04","SITE":"AFETR","RA_OF_ASC_NODE":"337.4087","BSTAR":"0.00190430000000","FILE":"3791349","ECCENTRICITY":"0.00013800","ARG_OF_PERICENTER":"88.2253","ELEMENT_SET_NO":"999","SEMIMAJOR_AXIS":"6925.231","MEAN_ANOMALY":"271.8894","APOAPSIS":"548.052","TLE_LINE2":"2 48372  53.0547 337.4087 0001380  88.2253 271.8894 15.06438201 98424","REV_AT_EPOCH":"9842","NORAD_CAT_ID":"48372","EPOCH":"2023-02-14T03:41:35.811744","MEAN_MOTION_DOT":"0.00028226","OBJECT_ID":"2021-038V","TIME_SYSTEM":"UTC","PERIAPSIS":"546.141","COUNTRY_CODE":"US","INCLINATION":"53.0547","EPHEMERIS_TYPE":"0","CENTER_NAME":"EARTH","OBJECT_NAME":"STARLINK-2572","REF_FRAME":"TEME","CLASSIFICATION_TYPE":"U","TLE_LINE1":"1 48372U 21038V   23045.15388671  .00028226  00000-0  19043-2 0  9990","MEAN_MOTION_DDOT":"0.0000000000000","OBJECT_TYPE":"PAYLOAD","PERIOD":"95.590","MEAN_ELEMENT_THEORY":"SGP4","DECAY_DATE":null}];
